{
    "links": {
        "self": "http://www.neowsapp.com/rest/v1/neo/3836104?api_key=iIulBulltgU6a56xZRHN4H3l9WmuAYTsLGpBGhQ2"
    },
    "id": "3836104",
    "neo_reference_id": "3836104",
    "name": "(2018 VC4)",
    "designation": "2018 VC4",
    "nasa_jpl_url": "http://ssd.jpl.nasa.gov/sbdb.cgi?sstr=3836104",
    "absolute_magnitude_h": 20.5,
    "estimated_diameter": {
        "kilometers": {
            "estimated_diameter_min": 0.2111324448,
            "estimated_diameter_max": 0.4721064988
        },
        "meters": {
            "estimated_diameter_min": 211.1324447897,
            "estimated_diameter_max": 472.1064988055
        },
        "miles": {
            "estimated_diameter_min": 0.1311915784,
            "estimated_diameter_max": 0.2933532873
        },
        "feet": {
            "estimated_diameter_min": 692.6917701639,
            "estimated_diameter_max": 1548.9058855411
        }
    },
    "is_potentially_hazardous_asteroid": false,
    "close_approach_data": [
        {
            "close_approach_date": "2018-07-18",
            "close_approach_date_full": "2018-Jul-18 20:01",
            "epoch_date_close_approach": 1531944060000,
            "relative_velocity": {
                "kilometers_per_second": "14.7090678418",
                "kilometers_per_hour": "52952.6442303464",
                "miles_per_hour": "32902.7138552394"
            },
            "miss_distance": {
                "astronomical": "0.2335752917",
                "lunar": "90.8607884713",
                "kilometers": "34942366.122948679",
                "miles": "21712179.5016586102"
            },
            "orbiting_body": "Earth"
        },
        {
            "close_approach_date": "2098-01-15",
            "close_approach_date_full": "2098-Jan-15 11:54",
            "epoch_date_close_approach": 4040625240000,
            "relative_velocity": {
                "kilometers_per_second": "4.6231919394",
                "kilometers_per_hour": "16643.490981713",
                "miles_per_hour": "10341.6180491649"
            },
            "miss_distance": {
                "astronomical": "1.6002439246",
                "lunar": "622.4948866694",
                "kilometers": "239393082.600600602",
                "miles": "148751963.8077962276"
            },
            "orbiting_body": "Juptr"
        },
        {
            "close_approach_date": "2174-05-03",
            "close_approach_date_full": "2174-May-03 22:25",
            "epoch_date_close_approach": 6448285500000,
            "relative_velocity": {
                "kilometers_per_second": "29.6073045659",
                "kilometers_per_hour": "106586.2964373541",
                "miles_per_hour": "66228.5795835326"
            },
            "miss_distance": {
                "astronomical": "0.4526844441",
                "lunar": "176.0942487549",
                "kilometers": "67720628.619494067",
                "miles": "42079647.3649774446"
            },
            "orbiting_body": "Earth"
        }
    ],
    "orbital_data": {
        "orbit_id": "3",
        "orbit_determination_date": "2019-01-01 07:06:20",
        "first_observation_date": "2018-11-06",
        "last_observation_date": "2018-12-10",
        "data_arc_in_days": 34,
        "observations_used": 30,
        "orbit_uncertainty": "7",
        "minimum_orbit_intersection": ".0861186",
        "jupiter_tisserand_invariant": "3.232",
        "epoch_osculation": "2459000.5",
        "eccentricity": ".6656165954819558",
        "semi_major_axis": "2.319087213126467",
        "inclination": "7.175878272696806",
        "ascending_node_longitude": "107.5678104733898",
        "orbital_period": "1289.953481048547",
        "perihelion_distance": ".775464277699491",
        "perihelion_argument": "201.2475424616974",
        "aphelion_distance": "3.862710148553442",
        "perihelion_time": "2459617.203356646978",
        "mean_anomaly": "187.8905312054764",
        "mean_motion": ".2790798313962234",
        "equinox": "J2000",
        "orbit_class": {
            "orbit_class_type": "APO",
            "orbit_class_description": "Near-Earth asteroid orbits which cross the Earth’s orbit similar to that of 1862 Apollo",
            "orbit_class_range": "a (semi-major axis) > 1.0 AU; q (perihelion) < 1.017 AU"
        }
    },
    "is_sentry_object": false
}